TDRS 3                  
1 19548U 88091B   17234.28084177 -.00000321  00000-0  00000-0 0  9994
2 19548  14.4455   7.2831 0033824 308.6052  53.6448  1.00267024 93113
SKYNET 4C               
1 20776U 90079A   17234.03200692  .00000104  00000-0  00000-0 0  9991
2 20776  13.8542  15.4443 0002326 144.2689 215.7948  1.00274498 98621
TDRS 5                  
1 21639U 91054B   17234.14912736  .00000063  00000-0  00000-0 0  9999
2 21639  14.4152  20.7125 0020674 348.5272 207.3617  1.00271945 95411
TDRS 6                  
1 22314U 93003B   17234.41752917 -.00000316  00000-0  00000+0 0  9990
2 22314  13.9501  23.6559 0002614 254.3276 157.1646  1.00265160 90083
ASTRA 1D                
1 23331U 94070A   17234.42224228 -.00000294  00000-0  00000+0 0  9990
2 23331   7.6590  48.7965 0003613  99.4538 262.1657  1.00271571 83870
BRASILSAT B2            
1 23536U 95016A   17234.21337528 -.00000306  00000-0  00000-0 0  9998
2 23536   7.2818  50.6695 0001601 117.7680 171.0875  1.00270985 82096
AMSC 1                  
1 23553U 95019A   17233.47985894 -.00000141  00000-0  00000+0 0  9998
2 23553  10.1616  39.2953 0003425 133.2762 226.8593  1.00272924 81869
TDRS 7                  
1 23613U 95035B   17234.08117861 -.00000223  00000-0  00000-0 0  9994
2 23613  14.9965  14.4122 0026669   3.5724  66.6060  1.00276460 80856
ECHOSTAR 1              
1 23754U 95073A   17234.31368771 -.00000272  00000-0  00000+0 0  9999
2 23754   0.9494  89.9307 0002540  57.4353 219.1095  1.00274694 79155
INMARSAT 3-F1           
1 23839U 96020A   17234.14940897 -.00000022  00000-0  00000+0 0  9995
2 23839   4.1051  67.1987 0005613  86.3094 295.4166  1.00270946 78323
ASTRA 1F                
1 23842U 96021A   17234.14922341  .00000107  00000-0  00000-0 0  9998
2 23842   0.1062 293.0889 0003976 231.4380 264.1247  1.00272612 20059
MSAT M1                 
1 23846U 96022A   17233.51663478 -.00000111  00000-0  00000-0 0  9992
2 23846   7.8461  48.3128 0004808 108.7053 251.5000  1.00272797 78116
INMARSAT 3-F2           
1 24307U 96053A   17234.33587769 -.00000155  00000-0  00000+0 0  9995
2 24307   2.7571  77.4036 0003982  68.1666 290.6771  1.00271580 76720
AMC-1 (GE-1)            
1 24315U 96054A   17233.67854635  .00000028  00000-0  00000-0 0  9999
2 24315   1.7016  84.7946 0002745  87.9507 272.5378  1.00271467 14023
AFRICASAT-2 (MEASAT-2)  
1 24653U 96063B   17234.13606465 -.00000254  00000-0  00000-0 0  9994
2 24653   7.5814  49.2190 0009301 172.0653 306.3457  1.00271291 76160
INMARSAT 3-F3           
1 24674U 96070A   17234.42826983  .00000007  00000-0  00000+0 0  9990
2 24674   3.5574  71.4501 0005368  82.3593 149.3683  1.00272782 75677
AMC-2 (GE-2)            
1 24713U 97002A   17234.18303551 -.00000240  00000-0  00000-0 0  9995
2 24713   4.4546  65.5980 0004711  81.3224 164.7956  1.00272194 75284
INTELSAT 26 (IS-26)     
1 24732U 97007A   17234.03313479 -.00000040  00000-0  00000+0 0  9992
2 24732   7.5581  49.5477 0003193 115.1008 243.6351  1.00283459 74988
GALAXY 25 (G-25)        
1 24812U 97026A   17234.33962390 -.00000194  00000-0  00000+0 0  9997
2 24812   0.0098  89.6512 0003557  57.5881 212.7674  1.00273251 74068
ABS-3                   
1 24901U 97042A   17234.08166628 -.00000140  00000-0  00000-0 0  9998
2 24901   5.0044  62.8921 0001563 112.1290 263.7917  1.00187949 73239
INTELSAT 5 (IS-5)       
1 24916U 97046A   17233.84411180 -.00000173  00000-0  00000-0 0  9993
2 24916   3.6705  70.7772 0002666  92.0796 268.2521  1.00271298 73318
AMC-3 (GE-3)            
1 24936U 97050A   17234.42224228 -.00000290  00000-0  00000+0 0  9999
2 24936   0.5165  92.2930 0002432  50.8241 267.7901  1.00271841 73151
NSS-5                   
1 24957U 97053A   17234.15059307  .00000078  00000-0  00000-0 0  9993
2 24957   3.9624  68.9767 0003186  73.8571 292.5137  1.00270657 72944
ECHOSTAR 3              
1 25004U 97059A   17232.55890767 -.00000207  00000-0  00000-0 0  9993
2 25004   2.2839  79.9795 0002994 137.6497 222.7127  1.00233025 72743
JCSAT-1B                
1 25067U 97075A   17234.13609698 -.00000006  00000-0  00000-0 0  9994
2 25067   5.6724  58.3802 0021104 110.3314 105.9393  0.98651768 75050
ASTRA 1G                
1 25071U 97076A   17234.26854889  .00000076  00000-0  00000+0 0  9993
2 25071   2.4543  78.1851 0002832  73.2703 327.0812  1.00269459 72246
BRASILSAT B3            
1 25152U 98006A   17233.44870797 -.00000313  00000-0  00000-0 0  9998
2 25152   4.1462  67.9942 0002794  81.4439 278.8577  1.00273068 71629
INMARSAT 3-F5           
1 25153U 98006B   17234.41815628 -.00000318  00000-0  00000+0 0  9993
2 25153   2.7041  74.0793 0004808  77.6789 275.7074  1.00271018 71590
NSS-806                 
1 25239U 98014A   17234.42346825 -.00000310  00000-0  00000+0 0  9998
2 25239   0.1118 302.0752 0004001 202.8949 290.8762  1.00273685 71354
CHINASAT 5A (ZX 5A)     
1 25354U 98033A   17234.51578815 -.00000385  00000-0  00000+0 0  9995
2 25354   1.3808  86.6351 0003490 122.9943  72.4982  1.00263842 74948
THOR III                
1 25358U 98035A   17233.25963584 -.00000072  00000-0  00000+0 0  9995
2 25358   5.5325  58.7081 0001903  97.6606 262.5772  1.00273210 70409
INTELSAT 805 (IS-805)   
1 25371U 98037A   17233.81868917 -.00000062  00000-0  00000-0 0  9998
2 25371   0.1477  95.2441 0002754  56.7369 282.0440  1.00272287 70240
ASTRA 2A                
1 25462U 98050A   17234.36241514 -.00000390  00000-0  00000+0 0  9996
2 25462   0.0753 255.7839 0002097 248.2735  70.7580  1.00272130 69440
AFRISTAR                
1 25515U 98063A   17234.33938309  .00000094  00000-0  00000+0 0  9991
2 25515   3.4235  69.5204 0003922  94.0050 310.4514  1.00273757 68832
JCSAT-4A                
1 25630U 99006A   17234.37827316 -.00000233  00000-0  00000+0 0  9992
2 25630   2.4267  79.7249 0004580  79.9017  97.4353  1.00271137 67700
SKYNET 4E               
1 25639U 99009B   17234.11092808 -.00000003  00000-0  00000-0 0  9992
2 25639  10.1887  28.0831 0002383 133.1749 215.2292  1.00272289 67713
ASIASAT 3S              
1 25657U 99013A   17233.27720979 -.00000268  00000-0  00000-0 0  9993
2 25657   2.6367  77.9000 0002810  48.6181  89.0824  1.00269295 67517
NIMIQ 1                 
1 25740U 99027A   17234.36715987 -.00000230  00000-0  00000+0 0  9993
2 25740   0.1012 279.7144 0002656 199.5662 257.2287  1.00271315 66910
ASTRA 1H                
1 25785U 99033A   17234.14922341  .00000107  00000-0  00000-0 0  9992
2 25785   3.9469  69.1282 0002615  76.3402 282.3729  1.00273127 66495
TELKOM 1                
1 25880U 99042A   17233.98764531 -.00000376  00000-0  00000-0 0  9993
2 25880   0.0192 135.0721 0001452  47.4134 251.5702  1.00269771 66086
ABS-7                   
1 25894U 99046A   17233.82767017 -.00000394  00000-0  00000-0 0  9997
2 25894   0.0234 219.8630 0001725 303.1497 221.3575  1.00269117 64822
ABS-6                   
1 25924U 99053A   17233.64127337 -.00000151  00000-0  00000-0 0  9995
2 25924   0.0732 285.0879 0003275 198.7443 236.1834  1.00274752 65576
TELSTAR 12 (ORION 2)    
1 25949U 99059A   17234.27868405 -.00000093  00000-0  00000-0 0  9991
2 25949   1.0709  88.6066 0002715  64.1956 169.0753  1.00271682 65232
AMC-4 (GE-4)            
1 25954U 99060A   17233.45817480  .00000057  00000-0  00000+0 0  9993
2 25954   0.0109 149.0308 0002544   1.8101 209.1733  1.00265142 65184
GALAXY 11 (G-11)        
1 26038U 99071A   17233.81958944  .00000105  00000-0  00000-0 0  9995
2 26038   0.0368  78.6829 0000771 343.3126 248.2721  1.00272608 64793
SUPERBIRD-B2            
1 26095U 00012A   17234.43799367 -.00000124  00000-0  00000+0 0  9997
2 26095   0.5369  93.8683 0002960  62.4402 134.2473  1.00272134 64137
ASIASTAR                
1 26107U 00016A   17234.01610219 -.00000364  00000-0  00000-0 0  9994
2 26107   1.8055  81.7992 0003987  71.3917 288.1082  1.00273435 63854
EUTELSAT 16C            
1 26243U 00019A   17234.27975017  .00000061  00000-0  00000+0 0  9998
2 26243   4.3864  65.9582 0002739  88.6136 291.4014  1.00271521 63494
EUTELSAT 80A            
1 26369U 00028A   17234.32615480 -.00000032  00000-0  00000+0 0  9997
2 26369   1.1492  85.4071 0003213  79.2128 289.0707  1.00062199 63187
TDRS 8                  
1 26388U 00034A   17233.98848095 -.00000255  00000-0  00000-0 0  9994
2 26388   7.5989  55.2669 0004376 194.6589 165.4925  1.00265616 62874
ECHOSTAR 6              
1 26402U 00038A   17234.13772491 -.00000178  00000-0  00000-0 0  9993
2 26402   4.3058  66.7645 0002859  88.8326 128.4013  1.00273451 62616
INTELSAT 9 (IS-9)       
1 26451U 00043A   17234.34993198 -.00000246  00000-0  00000+0 0  9990
2 26451   3.6583  71.0009 0002319  87.1697 269.1458  1.00272326 62540
BRASILSAT B4            
1 26469U 00046A   17233.57535193 -.00000201  00000-0  00000-0 0  9995
2 26469   1.7846  84.7359 0002295  68.5033 291.9542  1.00272685 62667
NILESAT 102             
1 26470U 00046B   17234.33101486 -.00000090  00000-0  00000+0 0  9991
2 26470   1.8142  83.4251 0003894  83.2103 276.3351  1.00271064 62344
ASTRA 2B                
1 26494U 00054A   17234.34800455 -.00000184  00000-0  00000+0 0  9993
2 26494   2.3437  78.8328 0004459  58.7016 298.9826  1.00271365 61939
AMC-7 (GE-7)            
1 26495U 00054B   17233.45845249  .00000057  00000-0  00000-0 0  9994
2 26495   0.0222  69.1127 0001313 116.1801 174.6905  1.00272123 61935
NSS-11 (AAP-1)          
1 26554U 00059A   17233.98764531 -.00000376  00000-0  00000-0 0  9992
2 26554   0.0618 285.6504 0002371 242.6575 265.8593  1.00267897 61873
N-SAT-110 (JCSAT-110)   
1 26559U 00060A   17234.45743935 -.00000382  00000-0  00000+0 0  9993
2 26559   0.0225 102.7549 0001575 330.3353 172.5869  1.00272682 61816
AMC-6 (GE-6)            
1 26580U 00067A   17234.36365378 -.00000247  00000-0  00000+0 0  9995
2 26580   0.0155 257.0958 0002524 273.5552 208.1283  1.00269728 61693
